NORAD_CAT_ID,OBJECT_NAME,OBJECT_TYPE,EPOCH,MEAN_MOTION,ECCENTRICITY,INCLINATION,RA_OF_ASC_NODE,ARG_OF_PERICENTER,MEAN_ANOMALY,BSTAR,MEAN_MOTION_DOT,MEAN_MOTION_DDOT,TLE_LINE0,TLE_LINE1,TLE_LINE2,SEMIMAJOR_AXIS,PERIOD,APOGEE,PERIGEE,DECAYED
52091.0,STARLINK-3713,PAYLOAD,2023-04-01 15:57:43,15.08838853,4.76e-05,53.2153,226.1141,55.4429,304.6608,1.6845e-05,-1.9e-07,0.0,0 STARLINK-3713,1 52091U 22029D   23091.66508552 -.00000019  00000-0  16845-4 0  9993,2 52091  53.2153 226.1141 0000476  55.4429 304.6608 15.08838853 58662,6917.884,95.438,540.078,539.42,0.0
52091.0,STARLINK-3713,PAYLOAD,2023-04-02 12:37:44,15.08835176,5.51e-05,53.2157,222.2493,51.5237,308.5805,4.669e-05,4.56e-06,0.0,0 STARLINK-3713,1 52091U 22029D   23092.52620932  .00000456  00000-0  46690-4 0  9991,2 52091  53.2157 222.2493 0000551  51.5237 308.5805 15.08835176 58792,6917.895,95.438,540.141,539.379,0.0
52091.0,STARLINK-3713,PAYLOAD,2023-04-02 14:13:07,15.08836093,5.48e-05,53.2158,221.9521,52.5904,307.5138,3.9783e-05,3.46e-06,0.0,0 STARLINK-3713,1 52091U 22029D   23092.59244904  .00000346  00000-0  39783-4 0  9992,2 52091  53.2158 221.9521 0000548  52.5904 307.5138 15.08836093 58808,6917.892,95.438,540.136,539.378,0.0
52091.0,STARLINK-3713,PAYLOAD,2023-04-02 15:48:30,15.08835433,5.58e-05,53.2156,221.6547,49.5183,310.5857,4.3455e-05,4.04e-06,0.0,0 STARLINK-3713,1 52091U 22029D   23092.65868945  .00000404  00000-0  43455-4 0  9992,2 52091  53.2156 221.6547 0000558  49.5183 310.5857 15.08835433 58817,6917.894,95.438,540.145,539.373,0.0
52091.0,STARLINK-3713,PAYLOAD,2023-04-03 09:17:45,15.08837982,5.78e-05,53.2156,218.3836,44.4103,315.6936,9.9169e-05,1.291e-05,0.0,0 STARLINK-3713,1 52091U 22029D   23093.38732815  .00001291  00000-0  99169-4 0  9997,2 52091  53.2156 218.3836 0000578  44.4103 315.6936 15.08837982 58926,6917.887,95.438,540.151,539.352,0.0
52091.0,STARLINK-3713,PAYLOAD,2023-04-03 17:14:40,15.08840037,6.28e-05,53.2154,216.8965,40.8973,319.2066,0.00010971,1.459e-05,0.0,0 STARLINK-3713,1 52091U 22029D   23093.71852688  .00001459  00000-0  10971-3 0  9994,2 52091  53.2154 216.8965 0000628  40.8973 319.2066 15.08840037 58975,6917.88,95.438,540.18,539.311,0.0
52091.0,STARLINK-3713,PAYLOAD,2023-04-04 09:08:32,15.08838561,6.72e-05,53.2152,213.9225,38.0304,322.0736,9.8959e-05,1.288e-05,0.0,0 STARLINK-3713,1 52091U 22029D   23094.38092920  .00001288  00000-0  98959-4 0  9996,2 52091  53.2152 213.9225 0000672  38.0304 322.0736 15.08838561 59073,6917.885,95.438,540.215,539.285,0.0
52091.0,STARLINK-3713,PAYLOAD,2023-04-05 12:10:06,15.08832356,7.82e-05,53.2149,208.8665,35.2899,324.8145,-1.2531e-05,-4.87e-06,0.0,0 STARLINK-3713,1 52091U 22029D   23095.50701838 -.00000487  00000-0 -12531-4 0  9990,2 52091  53.2149 208.8665 0000782  35.2899 324.8145 15.08832356 59249,6917.904,95.438,540.31,539.228,0.0
52091.0,STARLINK-3713,PAYLOAD,2023-04-05 13:45:29,15.08832975,6.98e-05,53.215,208.5692,29.5941,330.5091,-3.2421e-05,-8.03e-06,0.0,0 STARLINK-3713,1 52091U 22029D   23095.57325842 -.00000803  00000-0 -32421-4 0  9996,2 52091  53.2150 208.5692 0000698  29.5941 330.5091 15.08832975 59250,6917.902,95.438,540.25,539.284,0.0
52091.0,STARLINK-3713,PAYLOAD,2023-04-06 12:00:53,15.08830659,8.46e-05,53.216,204.4074,30.2999,329.8042,1.578e-05,-3.7e-07,0.0,0 STARLINK-3713,1 52091U 22029D   23096.50062324 -.00000037  00000-0  15780-4 0  9990,2 52091  53.2160 204.4074 0000846  30.2999 329.8042 15.08830659 59396,6917.909,95.438,540.359,539.189,0.0
52091.0,STARLINK-3713,PAYLOAD,2023-04-07 00:43:58,15.08830774,8.79e-05,53.2156,202.0281,37.2595,322.8458,0.00011817,1.593e-05,0.0,0 STARLINK-3713,1 52091U 22029D   23097.03054129  .00001593  00000-0  11817-3 0  9996,2 52091  53.2156 202.0281 0000879  37.2595 322.8458 15.08830774 59471,6917.909,95.438,540.382,539.166,0.0
52091.0,STARLINK-3713,PAYLOAD,2023-04-07 11:51:39,15.08853314,9.59e-05,53.2153,199.9464,41.7283,318.3782,0.00028601,4.269e-05,0.0,0 STARLINK-3713,1 52091U 22029D   23097.49420288  .00004269  00000-0  28601-3 0  9991,2 52091  53.2153 199.9464 0000959  41.7283 318.3782 15.08853314 59541,6917.84,95.437,540.368,539.041,0.0
52091.0,STARLINK-3713,PAYLOAD,2023-04-08 11:42:27,15.0883639,9.18e-05,53.2155,195.485,51.9721,308.1354,4.3998e-05,4.13e-06,0.0,0 STARLINK-3713,1 52091U 22029D   23098.48782007  .00000413  00000-0  43998-4 0  9995,2 52091  53.2155 195.4850 0000918  51.9721 308.1354 15.08836390 59691,6917.891,95.438,540.391,539.121,0.0
52091.0,STARLINK-3713,PAYLOAD,2023-04-08 13:17:50,15.08836798,8.56e-05,53.2156,195.1874,54.2338,305.8734,3.2927e-05,2.36e-06,0.0,0 STARLINK-3713,1 52091U 22029D   23098.55405987  .00000236  00000-0  32927-4 0  9995,2 52091  53.2156 195.1874 0000856  54.2338 305.8734 15.08836798 59706,6917.89,95.438,540.347,539.163,0.0
52091.0,STARLINK-3713,PAYLOAD,2023-04-09 09:57:51,15.08844944,9.84e-05,53.2161,191.323,47.8508,312.2567,-1.6388e-05,-5.49e-06,0.0,0 STARLINK-3713,1 52091U 22029D   23099.41517595 -.00000549  00000-0 -16388-4 0  9992,2 52091  53.2161 191.3230 0000984  47.8508 312.2567 15.08844944 59837,6917.865,95.437,540.411,539.05,0.0
52091.0,STARLINK-3713,PAYLOAD,2023-04-09 16:19:22,15.08878315,0.0001367,53.2153,190.1315,98.8885,261.2262,-0.00031087,-5.237e-05,0.0,0 STARLINK-3713,1 52091U 22029D   23099.68011964 -.00005237  00000-0 -31087-3 0  9991,2 52091  53.2153 190.1315 0001367  98.8885 261.2262 15.08878315 59877,6917.763,95.435,540.574,538.683,0.0
52091.0,STARLINK-3713,PAYLOAD,2023-04-09 22:40:56,15.08841696,8.79e-05,53.2147,188.9409,64.4145,295.6938,4.7584e-05,4.7e-06,0.0,0 STARLINK-3713,1 52091U 22029D   23099.94509290  .00000470  00000-0  47584-4 0  9996,2 52091  53.2147 188.9409 0000879  64.4145 295.6938 15.08841696 59912,6917.875,95.437,540.348,539.132,0.0
52091.0,STARLINK-3713,PAYLOAD,2023-04-10 06:37:52,15.08828457,9.37e-05,53.2156,187.4566,70.2632,289.8461,3.1273e-05,2.1e-06,0.0,0 STARLINK-3713,1 52091U 22029D   23100.27630301  .00000210  00000-0  31273-4 0  9993,2 52091  53.2156 187.4566 0000937  70.2632 289.8461 15.08828457 59962,6917.916,95.438,540.429,539.132,0.0
52091.0,STARLINK-3713,PAYLOAD,2023-04-11 04:53:15,15.08844147,0.0001424,53.2171,183.296,80.7677,279.3476,4.8164e-05,4.79e-06,0.0,0 STARLINK-3713,1 52091U 22029D   23101.20365470  .00000479  00000-0  48164-4 0  9993,2 52091  53.2171 183.2960 0001424  80.7677 279.3476 15.08844147 60100,6917.868,95.437,540.718,538.748,0.0
52091.0,STARLINK-3713,PAYLOAD,2023-04-11 11:14:48,15.08845631,0.000134,53.2141,182.1043,71.7589,288.3549,1.188e-05,-9.9e-07,0.0,0 STARLINK-3713,1 52091U 22029D   23101.46861406 -.00000099  00000-0  11880-4 0  9995,2 52091  53.2141 182.1043 0001340  71.7589 288.3549 15.08845631 60140,6917.863,95.437,540.655,538.801,0.0
52091.0,STARLINK-3713,PAYLOAD,2023-04-12 04:44:03,15.08830589,0.0001475,53.2162,178.8355,71.6418,288.4734,8.2492e-05,1.025e-05,0.0,0 STARLINK-3713,1 52091U 22029D   23102.19726100  .00001025  00000-0  82492-4 0  9993,2 52091  53.2162 178.8355 0001475  71.6418 288.4734 15.08830589 60255,6917.909,95.438,540.795,538.754,0.0
52091.0,STARLINK-3713,PAYLOAD,2023-04-12 11:05:36,15.08813632,0.0001763,53.2173,177.6457,80.5438,279.5754,0.00022146,3.236e-05,0.0,0 STARLINK-3713,1 52091U 22029D   23102.46222892  .00003236  00000-0  22146-3 0  9997,2 52091  53.2173 177.6457 0001763  80.5438 279.5754 15.08813632 60295,6917.961,95.439,541.046,538.606,0.0
52091.0,STARLINK-3713,PAYLOAD,2023-04-13 10:56:22,15.08845334,0.0001722,53.2167,173.1849,77.918,282.2005,6.1179e-05,6.86e-06,0.0,0 STARLINK-3713,1 52091U 22029D   23103.45581322  .00000686  00000-0  61179-4 0  9999,2 52091  53.2167 173.1849 0001722  77.9180 282.2005 15.08845334 60444,6917.864,95.437,540.92,538.538,0.0
52091.0,STARLINK-3713,PAYLOAD,2023-04-13 15:42:30,15.08855949,0.0001329,53.2157,172.2929,81.1875,278.9268,0.00015857,2.238e-05,0.0,0 STARLINK-3713,1 52091U 22029D   23103.65452083  .00002238  00000-0  15857-3 0  9998,2 52091  53.2157 172.2929 0001329  81.1875 278.9268 15.08855949 60472,6917.832,95.437,540.616,538.777,0.0
52091.0,STARLINK-3713,PAYLOAD,2023-04-13 22:04:04,15.08835188,0.0001471,53.2168,171.1034,76.7493,283.3663,-2.32e-06,-3.25e-06,0.0,0 STARLINK-3713,1 52091U 22029D   23103.91949878 -.00000325  00000-0 -23200-5 0  9990,2 52091  53.2168 171.1034 0001471  76.7493 283.3663 15.08835188 60510,6917.895,95.438,540.778,538.742,0.0
52091.0,STARLINK-3713,PAYLOAD,2023-04-14 10:47:09,15.08834718,0.0001476,53.2153,168.723,85.5519,274.5641,4.9293e-05,4.97e-06,0.0,0 STARLINK-3713,1 52091U 22029D   23104.44942002  .00000497  00000-0  49293-4 0  9998,2 52091  53.2153 168.7230 0001476  85.5519 274.5641 15.08834718 60590,6917.897,95.438,540.783,538.74,0.0
52091.0,STARLINK-3713,PAYLOAD,2023-04-14 15:33:18,15.08846357,0.0001356,53.2151,167.8298,98.6086,261.506,0.00014313,1.991e-05,0.0,0 STARLINK-3713,1 52091U 22029D   23104.64812907  .00001991  00000-0  14313-3 0  9994,2 52091  53.2151 167.8298 0001356  98.6086 261.5060 15.08846357 60620,6917.861,95.437,540.664,538.788,0.0
52091.0,STARLINK-3713,PAYLOAD,2023-04-15 04:16:24,15.08835862,0.0001384,53.215,165.4535,81.8444,278.2706,-2.1621e-05,-6.32e-06,0.0,0 STARLINK-3713,1 52091U 22029D   23105.17806235 -.00000632  00000-0 -21621-4 0  9994,2 52091  53.2150 165.4535 0001384  81.8444 278.2706 15.08835862 60700,6917.893,95.438,540.715,538.801,0.0
52091.0,STARLINK-3713,PAYLOAD,2023-04-15 10:37:56,15.08847079,0.0001587,53.2149,164.2585,117.1749,242.9405,-2.1539e-05,-6.31e-06,0.0,0 STARLINK-3713,1 52091U 22029D   23105.44301371 -.00000631  00000-0 -21539-4 0  9992,2 52091  53.2149 164.2585 0001587 117.1749 242.9405 15.08847079 60747,6917.859,95.437,540.822,538.626,0.0
52091.0,STARLINK-3713,PAYLOAD,2023-04-16 10:28:43,15.08841643,0.0001475,53.2152,159.7992,105.6197,254.4958,1.9095e-06,-2.58e-06,0.0,0 STARLINK-3713,1 52091U 22029D   23106.43661889 -.00000258  00000-0  19095-5 0  9994,2 52091  53.2152 159.7992 0001475 105.6197 254.4958 15.08841643 60895,6917.875,95.437,540.761,538.72,0.0
